[{"OBJECT_NAME":"TEVEL2-3","OBJECT_ID":"2025-052J","EPOCH":"2026-04-25T16:39:05.504544","MEAN_MOTION":15.32137804,"ECCENTRICITY":0.00017774,"INCLINATION":97.3942,"RA_OF_ASC_NODE":11.7034,"ARG_OF_PERICENTER":4.8166,"MEAN_ANOMALY":355.3093,"EPHEMERIS_TYPE":0,"CLASSIFICATION_TYPE":"U","NORAD_CAT_ID":63218,"ELEMENT_SET_NO":999,"REV_AT_EPOCH":6205,"BSTAR":0.00054476145,"MEAN_MOTION_DOT":0.00016845,"MEAN_MOTION_DDOT":0},{"OBJECT_NAME":"TEVEL2-2","OBJECT_ID":"2025-052K","EPOCH":"2026-04-25T16:45:08.354304","MEAN_MOTION":15.32098927,"ECCENTRICITY":0.0001855,"INCLINATION":97.3937,"RA_OF_ASC_NODE":11.6938,"ARG_OF_PERICENTER":5.1387,"MEAN_ANOMALY":354.9873,"EPHEMERIS_TYPE":0,"CLASSIFICATION_TYPE":"U","NORAD_CAT_ID":63219,"ELEMENT_SET_NO":999,"REV_AT_EPOCH":6205,"BSTAR":0.00055432315,"MEAN_MOTION_DOT":0.00017121,"MEAN_MOTION_DDOT":0},{"OBJECT_NAME":"TEVEL2-9","OBJECT_ID":"2025-052AD","EPOCH":"2026-04-25T16:12:51.736320","MEAN_MOTION":15.30264538,"ECCENTRICITY":0.00054279,"INCLINATION":97.3998,"RA_OF_ASC_NODE":11.1536,"ARG_OF_PERICENTER":348.321,"MEAN_ANOMALY":11.7904,"EPHEMERIS_TYPE":0,"CLASSIFICATION_TYPE":"U","NORAD_CAT_ID":63237,"ELEMENT_SET_NO":999,"REV_AT_EPOCH":6199,"BSTAR":0.00055186803,"MEAN_MOTION_DOT":0.00016104,"MEAN_MOTION_DDOT":0},{"OBJECT_NAME":"TEVEL2-7","OBJECT_ID":"2025-052AE","EPOCH":"2026-04-25T15:24:06.966720","MEAN_MOTION":15.30009136,"ECCENTRICITY":0.00055249,"INCLINATION":97.4005,"RA_OF_ASC_NODE":11.0565,"ARG_OF_PERICENTER":348.5841,"MEAN_ANOMALY":11.5274,"EPHEMERIS_TYPE":0,"CLASSIFICATION_TYPE":"U","NORAD_CAT_ID":63238,"ELEMENT_SET_NO":999,"REV_AT_EPOCH":6198,"BSTAR":0.00055187244,"MEAN_MOTION_DOT":0.00015978,"MEAN_MOTION_DDOT":0},{"OBJECT_NAME":"TEVEL2-8","OBJECT_ID":"2025-052AF","EPOCH":"2026-04-25T23:26:01.905216","MEAN_MOTION":15.30004274,"ECCENTRICITY":0.00055385,"INCLINATION":97.4002,"RA_OF_ASC_NODE":11.3684,"ARG_OF_PERICENTER":347.9171,"MEAN_ANOMALY":12.1936,"EPHEMERIS_TYPE":0,"CLASSIFICATION_TYPE":"U","NORAD_CAT_ID":63239,"ELEMENT_SET_NO":999,"REV_AT_EPOCH":6203,"BSTAR":0.00065556831,"MEAN_MOTION_DOT":0.00018999,"MEAN_MOTION_DDOT":0},{"OBJECT_NAME":"HADES-ICM","OBJECT_ID":"2025-052BN","EPOCH":"2026-04-25T16:07:23.670336","MEAN_MOTION":15.76542391,"ECCENTRICITY":0.00029951,"INCLINATION":97.3833,"RA_OF_ASC_NODE":18.437,"ARG_OF_PERICENTER":129.5792,"MEAN_ANOMALY":230.5739,"EPHEMERIS_TYPE":0,"CLASSIFICATION_TYPE":"U","NORAD_CAT_ID":63492,"ELEMENT_SET_NO":999,"REV_AT_EPOCH":6249,"BSTAR":0.0019187184,"MEAN_MOTION_DOT":0.00314857,"MEAN_MOTION_DDOT":0},{"OBJECT_NAME":"INNOSAT 16 (RS92S7)","OBJECT_ID":"2025-155C","EPOCH":"2026-04-25T21:48:15.397920","MEAN_MOTION":15.24856983,"ECCENTRICITY":0.00111235,"INCLINATION":97.4526,"RA_OF_ASC_NODE":83.2396,"ARG_OF_PERICENTER":20.8678,"MEAN_ANOMALY":339.3011,"EPHEMERIS_TYPE":0,"CLASSIFICATION_TYPE":"U","NORAD_CAT_ID":64878,"ELEMENT_SET_NO":999,"REV_AT_EPOCH":7270,"BSTAR":0.00033181193,"MEAN_MOTION_DOT":8.188e-5,"MEAN_MOTION_DDOT":0},{"OBJECT_NAME":"GEOSCAN 6 (RS92S6)","OBJECT_ID":"2025-155D","EPOCH":"2026-04-25T21:55:01.034688","MEAN_MOTION":15.2910968,"ECCENTRICITY":0.00082696,"INCLINATION":97.4522,"RA_OF_ASC_NODE":84.3163,"ARG_OF_PERICENTER":18.9941,"MEAN_ANOMALY":341.1606,"EPHEMERIS_TYPE":0,"CLASSIFICATION_TYPE":"U","NORAD_CAT_ID":64879,"ELEMENT_SET_NO":999,"REV_AT_EPOCH":7277,"BSTAR":0.00045098926,"MEAN_MOTION_DOT":0.00012688,"MEAN_MOTION_DDOT":0},{"OBJECT_NAME":"GEOSCAN 1 (RS92S1)","OBJECT_ID":"2025-155E","EPOCH":"2026-04-25T22:25:44.640480","MEAN_MOTION":15.29619012,"ECCENTRICITY":0.00082167,"INCLINATION":97.4518,"RA_OF_ASC_NODE":84.444,"ARG_OF_PERICENTER":19.3819,"MEAN_ANOMALY":340.7732,"EPHEMERIS_TYPE":0,"CLASSIFICATION_TYPE":"U","NORAD_CAT_ID":64880,"ELEMENT_SET_NO":999,"REV_AT_EPOCH":7278,"BSTAR":0.00047427993,"MEAN_MOTION_DOT":0.00013559,"MEAN_MOTION_DDOT":0},{"OBJECT_NAME":"239ALFEROV (RS61S)","OBJECT_ID":"2025-155F","EPOCH":"2026-04-25T21:47:10.712832","MEAN_MOTION":15.31477456,"ECCENTRICITY":0.00077728,"INCLINATION":97.4522,"RA_OF_ASC_NODE":84.8159,"ARG_OF_PERICENTER":20.8664,"MEAN_ANOMALY":339.2893,"EPHEMERIS_TYPE":0,"CLASSIFICATION_TYPE":"U","NORAD_CAT_ID":64881,"ELEMENT_SET_NO":999,"REV_AT_EPOCH":7280,"BSTAR":0.00060421262,"MEAN_MOTION_DOT":0.00018328,"MEAN_MOTION_DDOT":0},{"OBJECT_NAME":"GEOSCAN 2 (RS92S2)","OBJECT_ID":"2025-155Q","EPOCH":"2026-04-25T22:30:18.047232","MEAN_MOTION":15.29910264,"ECCENTRICITY":0.00070411,"INCLINATION":97.4517,"RA_OF_ASC_NODE":84.5784,"ARG_OF_PERICENTER":8.3189,"MEAN_ANOMALY":351.8167,"EPHEMERIS_TYPE":0,"CLASSIFICATION_TYPE":"U","NORAD_CAT_ID":64890,"ELEMENT_SET_NO":999,"REV_AT_EPOCH":7279,"BSTAR":0.00046669099,"MEAN_MOTION_DOT":0.00013458,"MEAN_MOTION_DDOT":0},{"OBJECT_NAME":"GEOSCAN 5 (RS92S5)","OBJECT_ID":"2025-155R","EPOCH":"2026-04-25T21:47:06.329760","MEAN_MOTION":15.31804044,"ECCENTRICITY":0.00069734,"INCLINATION":97.4514,"RA_OF_ASC_NODE":84.933,"ARG_OF_PERICENTER":29.4563,"MEAN_ANOMALY":330.707,"EPHEMERIS_TYPE":0,"CLASSIFICATION_TYPE":"U","NORAD_CAT_ID":64891,"ELEMENT_SET_NO":999,"REV_AT_EPOCH":7281,"BSTAR":0.00058541995,"MEAN_MOTION_DOT":0.00017933,"MEAN_MOTION_DDOT":0},{"OBJECT_NAME":"GEOSCAN 4 (RS92S4)","OBJECT_ID":"2025-155S","EPOCH":"2026-04-25T21:31:06.969216","MEAN_MOTION":15.31929154,"ECCENTRICITY":0.00070093,"INCLINATION":97.4517,"RA_OF_ASC_NODE":84.9567,"ARG_OF_PERICENTER":29.9289,"MEAN_ANOMALY":330.2352,"EPHEMERIS_TYPE":0,"CLASSIFICATION_TYPE":"U","NORAD_CAT_ID":64892,"ELEMENT_SET_NO":999,"REV_AT_EPOCH":7281,"BSTAR":0.0005855948,"MEAN_MOTION_DOT":0.00018009,"MEAN_MOTION_DDOT":0},{"OBJECT_NAME":"GEOSCAN 3 (RS92S3)","OBJECT_ID":"2025-155T","EPOCH":"2026-04-25T21:27:12.024288","MEAN_MOTION":15.33572923,"ECCENTRICITY":0.00068605,"INCLINATION":97.4507,"RA_OF_ASC_NODE":85.2464,"ARG_OF_PERICENTER":33.1203,"MEAN_ANOMALY":327.0468,"EPHEMERIS_TYPE":0,"CLASSIFICATION_TYPE":"U","NORAD_CAT_ID":64893,"ELEMENT_SET_NO":999,"REV_AT_EPOCH":7283,"BSTAR":0.00063708465,"MEAN_MOTION_DOT":0.00020643,"MEAN_MOTION_DDOT":0},{"OBJECT_NAME":"INNOSAT 3 (RS92S0)","OBJECT_ID":"2025-155U","EPOCH":"2026-04-25T22:37:52.722912","MEAN_MOTION":15.40178664,"ECCENTRICITY":0.00062742,"INCLINATION":97.4468,"RA_OF_ASC_NODE":86.346,"ARG_OF_PERICENTER":40.8112,"MEAN_ANOMALY":319.3603,"EPHEMERIS_TYPE":0,"CLASSIFICATION_TYPE":"U","NORAD_CAT_ID":64894,"ELEMENT_SET_NO":999,"REV_AT_EPOCH":7291,"BSTAR":0.00099797276,"MEAN_MOTION_DOT":0.0004015,"MEAN_MOTION_DDOT":0},{"OBJECT_NAME":"KNACKSAT-2","OBJECT_ID":"1998-067XZ","EPOCH":"2026-04-25T22:26:28.582656","MEAN_MOTION":15.55609093,"ECCENTRICITY":0.0012347,"INCLINATION":51.6297,"RA_OF_ASC_NODE":196.3967,"ARG_OF_PERICENTER":4.2804,"MEAN_ANOMALY":355.829,"EPHEMERIS_TYPE":0,"CLASSIFICATION_TYPE":"U","NORAD_CAT_ID":67683,"ELEMENT_SET_NO":999,"REV_AT_EPOCH":1213,"BSTAR":0.00060657939,"MEAN_MOTION_DOT":0.00042262,"MEAN_MOTION_DDOT":0}]
