TEVEL2-3                
1 63218U 25052J   26115.69381371  .00016845  00000+0  54476-3 0  9999
2 63218  97.3942  11.7034 0001777   4.8166 355.3093 15.32137804 62054
TEVEL2-2                
1 63219U 25052K   26115.69801336  .00017121  00000+0  55432-3 0  9999
2 63219  97.3937  11.6938 0001855   5.1387 354.9873 15.32098927 62050
TEVEL2-9                
1 63237U 25052AD  26115.67559880  .00016104  00000+0  55187-3 0  9998
2 63237  97.3998  11.1536 0005427 348.3210  11.7904 15.30264538 61998
TEVEL2-7                
1 63238U 25052AE  26115.64174730  .00015978  00000+0  55187-3 0  9991
2 63238  97.4005  11.0565 0005524 348.5841  11.5274 15.30009136 61988
TEVEL2-8                
1 63239U 25052AF  26115.97641094  .00018999  00000+0  65557-3 0  9998
2 63239  97.4002  11.3684 0005538 347.9171  12.1936 15.30004274 62032
HADES-ICM               
1 63492U 25052BN  26115.67180174  .00314857  00000+0  19187-2 0  9992
2 63492  97.3833  18.4370 0002995 129.5792 230.5739 15.76542391 62495
INNOSAT 16 (RS92S7)     
1 64878U 25155C   26115.90851155  .00008188  00000+0  33181-3 0  9993
2 64878  97.4526  83.2396 0011123  20.8678 339.3011 15.24856983 72705
GEOSCAN 6 (RS92S6)      
1 64879U 25155D   26115.91320642  .00012688  00000+0  45099-3 0  9998
2 64879  97.4522  84.3163 0008269  18.9941 341.1606 15.29109680 72772
GEOSCAN 1 (RS92S1)      
1 64880U 25155E   26115.93454445  .00013559  00000+0  47428-3 0  9997
2 64880  97.4518  84.4440 0008216  19.3819 340.7732 15.29619012 72780
239ALFEROV (RS61S)      
1 64881U 25155F   26115.90776288  .00018328  00000+0  60421-3 0  9994
2 64881  97.4522  84.8159 0007772  20.8664 339.2893 15.31477456 72809
GEOSCAN 2 (RS92S2)      
1 64890U 25155Q   26115.93770888  .00013458  00000+0  46669-3 0  9994
2 64890  97.4517  84.5784 0007041   8.3189 351.8167 15.29910264 72794
GEOSCAN 5 (RS92S5)      
1 64891U 25155R   26115.90771215  .00017933  00000+0  58542-3 0  9992
2 64891  97.4514  84.9330 0006973  29.4563 330.7070 15.31804044 72819
GEOSCAN 4 (RS92S4)      
1 64892U 25155S   26115.89660844  .00018009  00000+0  58559-3 0  9999
2 64892  97.4517  84.9567 0007009  29.9289 330.2352 15.31929154 72814
GEOSCAN 3 (RS92S3)      
1 64893U 25155T   26115.89388917  .00020643  00000+0  63708-3 0  9997
2 64893  97.4507  85.2464 0006860  33.1203 327.0468 15.33572923 72835
INNOSAT 3 (RS92S0)      
1 64894U 25155U   26115.94297133  .00040150  00000+0  99797-3 0  9995
2 64894  97.4468  86.3460 0006274  40.8112 319.3603 15.40178664 72919
KNACKSAT-2              
1 67683U 98067XZ  26115.93505304  .00042262  00000+0  60658-3 0  9997
2 67683  51.6297 196.3967 0012347   4.2804 355.8290 15.55609093 12130
